OBJECT_NAME,OBJECT_ID,EPOCH,MEAN_MOTION,ECCENTRICITY,INCLINATION,RA_OF_ASC_NODE,ARG_OF_PERICENTER,MEAN_ANOMALY,EPHEMERIS_TYPE,CLASSIFICATION_TYPE,NORAD_CAT_ID,ELEMENT_SET_NO,REV_AT_EPOCH,BSTAR,MEAN_MOTION_DOT,MEAN_MOTION_DDOT
STARLINK-38067,2026-150J,2026-07-18T01:50:53.352096,15.75181682,.00035152,97.2834,37.5622,72.8591,287.3059,0,U,69747,999,377,.73100228E-3,.11031E-2,0
STARLINK-37988,2026-150K,2026-07-18T01:48:20.962368,15.75145670,.00042191,97.2841,37.5649,66.9450,293.2260,0,U,69748,999,377,.14726536E-2,.225046E-2,0
STARLINK-37987,2026-150L,2026-07-18T01:42:14.908032,15.75181379,.00032556,97.2830,37.5702,71.3582,288.8037,0,U,69749,999,377,.86228711E-3,.130444E-2,0
STARLINK-38037,2026-150M,2026-07-18T02:39:40.368096,15.80876702,.00006727,97.2840,37.6698,104.2842,255.8501,0,U,69750,999,378,.36836939E-3,.71192E-3,0
STARLINK-38049,2026-150N,2026-07-18T07:11:39.669216,15.80904570,.00016678,97.2861,37.8729,80.4617,279.6840,0,U,69751,999,381,.78940466E-3,.154397E-2,0
STARLINK-38029,2026-150P,2026-07-18T02:49:49.838016,15.75187655,.0000753,97.2843,37.6611,123.3315,236.8023,0,U,69752,999,378,.85337669E-3,.129083E-2,0
STARLINK-37965,2026-150Q,2026-07-18T02:59:28.811328,15.75155191,.00013547,97.2837,37.6510,86.9381,273.2040,0,U,69753,999,378,.83655318E-3,.126319E-2,0
STARLINK-38048,2026-150R,2026-07-18T07:02:51.593280,15.80891237,.00012819,97.2842,37.8810,76.2798,283.8613,0,U,69754,999,381,.99467079E-3,.195382E-2,0
STARLINK-38006,2026-150S,2026-07-18T01:14:48.156000,15.75182310,.00019962,97.2845,37.5991,88.1007,272.0487,0,U,69755,999,377,.95472021E-3,.144667E-2,0
STARLINK-38036,2026-150T,2026-07-18T06:00:02.000160,15.75254928,.00011416,97.2859,37.8238,82.0569,358.5632,0,U,69756,999,378,-.12682348E-2,-.185762E-2,0
STARLINK-38058,2026-150U,2026-07-18T06:00:02.000160,15.78431187,.00017529,97.2849,37.8448,81.4582,52.7565,0,U,69757,999,378,-.13150626E-1,-.1964478E-1,0
STARLINK-38066,2026-150V,2026-07-18T05:25:05.444544,15.81339027,.00033534,97.2829,37.8216,298.3104,61.7826,0,U,69758,999,380,.19397273E-2,.398303E-2,0
STARLINK-38035,2026-150W,2026-07-16T12:23:54.049920,15.80943955,.0001208,97.2826,36.0135,127.8766,232.2612,0,U,69759,999,353,.16439E-2,.328828E-2,0
STARLINK-38056,2026-150X,2026-07-18T02:17:46.053024,15.80815032,.00016443,97.2837,37.6918,89.3154,270.8302,0,U,69760,999,378,.99451756E-3,.194659E-2,0
STARLINK-38069,2026-150Y,2026-07-18T06:00:02.000160,15.77387700,.00019478,97.2855,37.8628,78.8757,93.6878,0,U,69761,999,378,-.12907805E-1,-.1855853E-1,0
STARLINK-38019,2026-150Z,2026-07-18T05:48:12.951648,15.75226812,.00006409,97.2842,37.7983,117.0059,243.1272,0,U,69762,999,380,.85160661E-3,.129033E-2,0
KUIPER-00258,2026-151A,2026-07-18T06:16:57.567360,15.34743670,.0011581,51.8672,165.7810,180.0019,180.0968,0,U,69763,999,248,.32978871E-3,.1093E-3,0
KUIPER-00526,2026-151B,2026-07-18T05:48:58.215744,15.37360381,.00059718,51.8770,165.6601,149.9077,210.2254,0,U,69764,999,248,.24440612E-3,.8711E-4,0
KUIPER-00558,2026-151C,2026-07-18T06:00:02.000160,15.33546380,.00069995,51.8781,165.7195,165.0179,189.3637,0,U,69765,999,309,.63362908E-3,.20551E-3,0
KUIPER-00569,2026-151D,2026-07-18T05:46:23.316096,15.37513738,.00049564,51.8799,165.6466,150.6258,209.5008,0,U,69766,999,248,.45888683E-3,.16802E-3,0
KUIPER-00589,2026-151E,2026-07-18T05:47:43.010592,15.37386497,.00052751,51.8762,165.6547,150.5309,209.5976,0,U,69767,999,248,.24425384E-3,.8712E-4,0
KUIPER-00598,2026-151F,2026-07-18T06:00:02.000160,15.34391793,.00085606,51.8642,165.8361,173.1739,120.5182,0,U,69768,999,302,.36591314E-3,.12023E-3,0
KUIPER-00604,2026-151G,2026-07-18T07:08:47.067936,15.38287790,.00026819,51.8806,165.2813,116.8427,243.2835,0,U,69769,999,249,.30798292E-3,.11428E-3,0
KUIPER-00609,2026-151H,2026-07-18T07:02:35.174688,15.38678520,.00012471,51.8809,165.2531,57.8573,302.2536,0,U,69770,999,249,.21858833E-3,.8098E-4,0
KUIPER-00611,2026-151J,2026-07-18T07:05:35.726496,15.38502421,.00015597,51.8812,165.2626,114.0784,246.0367,0,U,69771,999,249,.34479133E-3,.12935E-3,0
KUIPER-00612,2026-151K,2026-07-18T07:13:14.187360,15.37985494,.00036292,51.8801,165.3029,124.6341,235.4988,0,U,69772,999,249,.25156023E-3,.9166E-4,0
KUIPER-00614,2026-151L,2026-07-18T07:10:04.925568,15.38195804,.00026376,51.8810,165.2858,131.3075,228.8140,0,U,69773,999,249,.29650104E-3,.10952E-3,0
KUIPER-00615,2026-151M,2026-07-18T05:50:19.196736,15.37268254,.00059896,51.8783,165.6659,157.5895,202.5354,0,U,69774,999,248,.24666733E-3,.8768E-4,0
KUIPER-00616,2026-151N,2026-07-18T07:07:26.640768,15.38429645,.00029597,51.8793,165.2779,134.0384,226.0848,0,U,69775,999,249,.58719962E-3,.22283E-3,0
KUIPER-00617,2026-151P,2026-07-18T07:15:15.389280,15.37835329,.00037591,51.8805,165.3116,144.4856,215.6382,0,U,69776,999,249,.36425981E-3,.1339E-3,0
