STARLINK-38067          
1 69747U 26150J   26199.07700639  .00110310  00000+0  73100-3 0  9995
2 69747  97.2834  37.5622 0003515  72.8591 287.3059 15.75181682  3774
STARLINK-37988          
1 69748U 26150K   26199.07524262  .00225046  00000+0  14727-2 0  9994
2 69748  97.2841  37.5649 0004219  66.9450 293.2260 15.75145670  3779
STARLINK-37987          
1 69749U 26150L   26199.07100588  .00130444  00000+0  86229-3 0  9990
2 69749  97.2830  37.5702 0003255  71.3582 288.8037 15.75181379  3771
STARLINK-38037          
1 69750U 26150M   26199.11088389  .00071192  00000+0  36837-3 0  9995
2 69750  97.2840  37.6698 0000672 104.2842 255.8501 15.80876702  3782
STARLINK-38049          
1 69751U 26150N   26199.29976469  .00154397  00000+0  78940-3 0  9990
2 69751  97.2861  37.8729 0001667  80.4617 279.6840 15.80904570  3812
STARLINK-38029          
1 69752U 26150P   26199.11793794  .00129083  00000+0  85338-3 0  9993
2 69752  97.2843  37.6611 0000753 123.3315 236.8023 15.75187655  3783
STARLINK-37965          
1 69753U 26150Q   26199.12463902  .00126319  00000+0  83655-3 0  9999
2 69753  97.2837  37.6510 0001354  86.9381 273.2040 15.75155191  3784
STARLINK-38048          
1 69754U 26150R   26199.29365270  .00195382  00000+0  99467-3 0  9991
2 69754  97.2842  37.8810 0001281  76.2798 283.8613 15.80891237  3810
STARLINK-38006          
1 69755U 26150S   26199.05194625  .00144667  00000+0  95472-3 0  9992
2 69755  97.2845  37.5991 0001996  88.1007 272.0487 15.75182310  3772
STARLINK-38036          
1 69756U 26150T   26199.25002315 -.00185762  00000+0 -12682-2 0  9993
2 69756  97.2859  37.8238 0001141  82.0569 358.5632 15.75254928  3781
STARLINK-38058          
1 69757U 26150U   26199.25002315 -.01964478  00000+0 -13151-1 0  9995
2 69757  97.2849  37.8448 0001752  81.4582  52.7565 15.78431187  3785
STARLINK-38066          
1 69758U 26150V   26199.22575746  .00398303  00000+0  19397-2 0  9990
2 69758  97.2829  37.8216 0003353 298.3104  61.7826 15.81339027  3802
STARLINK-38035          
1 69759U 26150W   26197.51659780  .00328828  00000+0  16439-2 0  9991
2 69759  97.2826  36.0135 0001208 127.8766 232.2612 15.80943955  3536
STARLINK-38056          
1 69760U 26150X   26199.09567191  .00194659  00000+0  99452-3 0  9992
2 69760  97.2837  37.6918 0001644  89.3154 270.8302 15.80815032  3788
STARLINK-38069          
1 69761U 26150Y   26199.25002315 -.01855853  00000+0 -12908-1 0  9995
2 69761  97.2855  37.8628 0001947  78.8757  93.6878 15.77387700  3788
STARLINK-38019          
1 69762U 26150Z   26199.24181657  .00129033  00000+0  85161-3 0  9996
2 69762  97.2842  37.7983 0000640 117.0059 243.1272 15.75226812  3805
KUIPER-00258            
1 69763U 26151A   26199.26177740  .00010930  00000+0  32979-3 0  9992
2 69763  51.8672 165.7810 0011581 180.0019 180.0968 15.34743670  2481
KUIPER-00526            
1 69764U 26151B   26199.24234046  .00008711  00000+0  24441-3 0  9993
2 69764  51.8770 165.6601 0005971 149.9077 210.2254 15.37360381  2483
KUIPER-00558            
1 69765U 26151C   26199.25002315  .00020551  00000+0  63363-3 0  9999
2 69765  51.8781 165.7195 0006999 165.0179 189.3637 15.33546380  3098
KUIPER-00569            
1 69766U 26151D   26199.24054764  .00016802  00000+0  45889-3 0  9991
2 69766  51.8799 165.6466 0004956 150.6258 209.5008 15.37513738  2481
KUIPER-00589            
1 69767U 26151E   26199.24147003  .00008712  00000+0  24425-3 0  9995
2 69767  51.8762 165.6547 0005275 150.5309 209.5976 15.37386497  2487
KUIPER-00598            
1 69768U 26151F   26199.25002315  .00012023  00000+0  36591-3 0  9990
2 69768  51.8642 165.8361 0008560 173.1739 120.5182 15.34391793  3023
KUIPER-00604            
1 69769U 26151G   26199.29776699  .00011428  00000+0  30798-3 0  9999
2 69769  51.8806 165.2813 0002681 116.8427 243.2835 15.38287790  2491
KUIPER-00609            
1 69770U 26151H   26199.29346267  .00008098  00000+0  21859-3 0  9992
2 69770  51.8809 165.2531 0001247  57.8573 302.2536 15.38678520  2495
KUIPER-00611            
1 69771U 26151J   26199.29555239  .00012935  00000+0  34479-3 0  9991
2 69771  51.8812 165.2626 0001559 114.0784 246.0367 15.38502421  2494
KUIPER-00612            
1 69772U 26151K   26199.30085865  .00009166  00000+0  25156-3 0  9991
2 69772  51.8801 165.3029 0003629 124.6341 235.4988 15.37985494  2492
KUIPER-00614            
1 69773U 26151L   26199.29866812  .00010952  00000+0  29650-3 0  9997
2 69773  51.8810 165.2858 0002637 131.3075 228.8140 15.38195804  2494
KUIPER-00615            
1 69774U 26151M   26199.24327774  .00008768  00000+0  24667-3 0  9997
2 69774  51.8783 165.6659 0005989 157.5895 202.5354 15.37268254  2484
KUIPER-00616            
1 69775U 26151N   26199.29683612  .00022283  00000+0  58720-3 0  9994
2 69775  51.8793 165.2779 0002959 134.0384 226.0848 15.38429645  2496
KUIPER-00617            
1 69776U 26151P   26199.30226145  .00013390  00000+0  36426-3 0  9999
2 69776  51.8805 165.3116 0003759 144.4856 215.6382 15.37835329  2491
